{
  "links" : {
    "next" : "https://api.nasa.gov/neo/rest/v1/feed?start_date=2013-04-09&end_date=2013-04-09&detailed=true&api_key=t0TVs3DtDT2H8Oy2Zy8m2eVrNsAVKAexjcZXUckd",
    "prev" : "https://api.nasa.gov/neo/rest/v1/feed?start_date=2013-04-07&end_date=2013-04-07&detailed=true&api_key=t0TVs3DtDT2H8Oy2Zy8m2eVrNsAVKAexjcZXUckd",
    "self" : "https://api.nasa.gov/neo/rest/v1/feed?start_date=2013-04-08&end_date=2013-04-08&detailed=true&api_key=t0TVs3DtDT2H8Oy2Zy8m2eVrNsAVKAexjcZXUckd"
  },
  "element_count" : 7,
  "near_earth_objects" : {
    "2013-04-08" : [ {
      "links" : {
        "self" : "https://api.nasa.gov/neo/rest/v1/neo/3632237?api_key=t0TVs3DtDT2H8Oy2Zy8m2eVrNsAVKAexjcZXUckd"
      },
      "neo_reference_id" : "3632237",
      "name" : "(2013 EJ89)",
      "nasa_jpl_url" : "http://ssd.jpl.nasa.gov/sbdb.cgi?sstr=3632237",
      "absolute_magnitude_h" : 24.3,
      "estimated_diameter" : {
        "kilometers" : {
          "estimated_diameter_min" : 0.0366906138,
          "estimated_diameter_max" : 0.0820427065
        },
        "meters" : {
          "estimated_diameter_min" : 36.6906137531,
          "estimated_diameter_max" : 82.0427064882
        },
        "miles" : {
          "estimated_diameter_min" : 0.0227984834,
          "estimated_diameter_max" : 0.0509789586
        },
        "feet" : {
          "estimated_diameter_min" : 120.3760332259,
          "estimated_diameter_max" : 269.1689931548
        }
      },
      "is_potentially_hazardous_asteroid" : false,
      "close_approach_data" : [ {
        "close_approach_date" : "2013-04-08",
        "epoch_date_close_approach" : 1365404400000,
        "relative_velocity" : {
          "kilometers_per_second" : "9.071514213",
          "kilometers_per_hour" : "32657.4511667824",
          "miles_per_hour" : "20292.0701430488"
        },
        "miss_distance" : {
          "astronomical" : "0.0706876517",
          "lunar" : "27.4974956512",
          "kilometers" : "10574722",
          "miles" : "6570828"
        },
        "orbiting_body" : "Earth"
      } ],
      "orbital_data" : {
        "orbit_id" : "9",
        "orbit_determination_date" : "2017-04-06 08:46:28",
        "orbit_uncertainty" : "8",
        "minimum_orbit_intersection" : ".0700754",
        "jupiter_tisserand_invariant" : "4.435",
        "epoch_osculation" : "2456366.5",
        "eccentricity" : ".3721827945577579",
        "semi_major_axis" : "1.51140994019076",
        "inclination" : "7.403948033774013",
        "ascending_node_longitude" : "350.998809733023",
        "orbital_period" : "678.6906061242335",
        "perihelion_distance" : ".9488891649281893",
        "perihelion_argument" : "254.1270614016119",
        "aphelion_distance" : "2.073930715453331",
        "perihelion_time" : "2456429.892542252356",
        "mean_anomaly" : "326.3744937606065",
        "mean_motion" : ".5304331557730482",
        "equinox" : "J2000"
      }
    }, {
      "links" : {
        "self" : "https://api.nasa.gov/neo/rest/v1/neo/3545558?api_key=t0TVs3DtDT2H8Oy2Zy8m2eVrNsAVKAexjcZXUckd"
      },
      "neo_reference_id" : "3545558",
      "name" : "(2010 RX30)",
      "nasa_jpl_url" : "http://ssd.jpl.nasa.gov/sbdb.cgi?sstr=3545558",
      "absolute_magnitude_h" : 27.1,
      "estimated_diameter" : {
        "kilometers" : {
          "estimated_diameter_min" : 0.0101054342,
          "estimated_diameter_max" : 0.0225964377
        },
        "meters" : {
          "estimated_diameter_min" : 10.1054341542,
          "estimated_diameter_max" : 22.5964377109
        },
        "miles" : {
          "estimated_diameter_min" : 0.0062792237,
          "estimated_diameter_max" : 0.0140407711
        },
        "feet" : {
          "estimated_diameter_min" : 33.1543125905,
          "estimated_diameter_max" : 74.1352966996
        }
      },
      "is_potentially_hazardous_asteroid" : false,
      "close_approach_data" : [ {
        "close_approach_date" : "2013-04-08",
        "epoch_date_close_approach" : 1365404400000,
        "relative_velocity" : {
          "kilometers_per_second" : "10.2706060263",
          "kilometers_per_hour" : "36974.1816947574",
          "miles_per_hour" : "22974.3186202786"
        },
        "miss_distance" : {
          "astronomical" : "0.3706775814",
          "lunar" : "144.1935882568",
          "kilometers" : "55452580",
          "miles" : "34456636"
        },
        "orbiting_body" : "Earth"
      } ],
      "orbital_data" : {
        "orbit_id" : "14",
        "orbit_determination_date" : "2017-04-06 08:56:50",
        "orbit_uncertainty" : "1",
        "minimum_orbit_intersection" : ".00108035",
        "jupiter_tisserand_invariant" : "6.997",
        "epoch_osculation" : "2458000.5",
        "eccentricity" : ".3884472788369994",
        "semi_major_axis" : ".830728067890893",
        "inclination" : "5.059664077001305",
        "ascending_node_longitude" : "166.1544806171286",
        "orbital_period" : "276.5583358674995",
        "perihelion_distance" : ".5080340104651575",
        "perihelion_argument" : "319.7961989090851",
        "aphelion_distance" : "1.153422125316629",
        "perihelion_time" : "2458016.802544911097",
        "mean_anomaly" : "338.7787406603182",
        "mean_motion" : "1.301714514844629",
        "equinox" : "J2000"
      }
    }, {
      "links" : {
        "self" : "https://api.nasa.gov/neo/rest/v1/neo/3630637?api_key=t0TVs3DtDT2H8Oy2Zy8m2eVrNsAVKAexjcZXUckd"
      },
      "neo_reference_id" : "3630637",
      "name" : "(2013 ET9)",
      "nasa_jpl_url" : "http://ssd.jpl.nasa.gov/sbdb.cgi?sstr=3630637",
      "absolute_magnitude_h" : 21.1,
      "estimated_diameter" : {
        "kilometers" : {
          "estimated_diameter_min" : 0.160160338,
          "estimated_diameter_max" : 0.358129403
        },
        "meters" : {
          "estimated_diameter_min" : 160.1603379786,
          "estimated_diameter_max" : 358.1294030194
        },
        "miles" : {
          "estimated_diameter_min" : 0.0995189894,
          "estimated_diameter_max" : 0.2225312253
        },
        "feet" : {
          "estimated_diameter_min" : 525.4604432536,
          "estimated_diameter_max" : 1174.9652706022
        }
      },
      "is_potentially_hazardous_asteroid" : false,
      "close_approach_data" : [ {
        "close_approach_date" : "2013-04-08",
        "epoch_date_close_approach" : 1365404400000,
        "relative_velocity" : {
          "kilometers_per_second" : "6.4687391979",
          "kilometers_per_hour" : "23287.4611123199",
          "miles_per_hour" : "14469.9227117079"
        },
        "miss_distance" : {
          "astronomical" : "0.1877185224",
          "lunar" : "73.0225067139",
          "kilometers" : "28082292",
          "miles" : "17449528"
        },
        "orbiting_body" : "Earth"
      } ],
      "orbital_data" : {
        "orbit_id" : "36",
        "orbit_determination_date" : "2017-01-10 06:16:44",
        "orbit_uncertainty" : "0",
        "minimum_orbit_intersection" : ".108574",
        "jupiter_tisserand_invariant" : "5.127",
        "epoch_osculation" : "2457800.5",
        "eccentricity" : ".1799178110591263",
        "semi_major_axis" : "1.242443303228567",
        "inclination" : "12.31783872224655",
        "ascending_node_longitude" : "190.6875450154926",
        "orbital_period" : "505.8401484159957",
        "perihelion_distance" : "1.018905623746613",
        "perihelion_argument" : "72.36211835546723",
        "aphelion_distance" : "1.465980982710521",
        "perihelion_time" : "2457982.612973217496",
        "mean_anomaly" : "230.3925132008649",
        "mean_motion" : ".71168728130283",
        "equinox" : "J2000"
      }
    } ]
  }
}